{
  "type": "FeatureCollection",
  "features": [
    {
      "type": "Feature",
      "properties": {
        "norad_id": 65943,
        "name": "E-KAGAKU-1",
        "group": "stations",
        "lat": -24.679252686652834,
        "lon": 33.732025126962654,
        "alt_km": 396.85000356163437,
        "timestamp": "2025-12-02T07:10:07.889839+00:00",
        "meta_object_name": "E-KAGAKU-1",
        "meta_object_id": "1998-067XQ",
        "meta_epoch": "2025-12-01T01:00:17.648352",
        "meta_mean_motion": 15.57460747,
        "meta_eccentricity": 0.00037303,
        "meta_inclination": 51.6301,
        "meta_ra_of_asc_node": 198.6831,
        "meta_arg_of_pericenter": 140.2253,
        "meta_mean_anomaly": 219.9013,
        "meta_ephemeris_type": 0,
        "meta_classification_type": "U",
        "meta_norad_cat_id": 65943,
        "meta_element_set_no": 999,
        "meta_rev_at_epoch": 803,
        "meta_bstar": 0.0008573363,
        "meta_mean_motion_dot": 0.00064224,
        "meta_mean_motion_ddot": 0,
        "tle_line1": "1 65943U 98067XQ  25335.04187093  .00064224  00000+0  85734-3 0  9994",
        "tle_line2": "2 65943  51.6301 198.6831 0003730 140.2253 219.9013 15.57460747  8033"
      },
      "geometry": {
        "type": "Point",
        "coordinates": [
          33.732025126962654,
          -24.679252686652834
        ]
      }
    },
    {
      "type": "Feature",
      "properties": {
        "norad_id": 66052,
        "name": "HRC MONOBLOCK CAMERA",
        "group": "stations",
        "lat": 15.521595906633083,
        "lon": -153.76124294856814,
        "alt_km": 407.74990123713815,
        "timestamp": "2025-12-02T07:10:07.889852+00:00",
        "meta_object_name": "HRC MONOBLOCK CAMERA",
        "meta_object_id": "1998-067XR",
        "meta_epoch": "2025-12-01T20:16:24.066336",
        "meta_mean_motion": 15.53090965,
        "meta_eccentricity": 0.0004504,
        "meta_inclination": 51.6297,
        "meta_ra_of_asc_node": 195.7879,
        "meta_arg_of_pericenter": 140.4183,
        "meta_mean_anomaly": 219.7136,
        "meta_ephemeris_type": 0,
        "meta_classification_type": "U",
        "meta_norad_cat_id": 66052,
        "meta_element_set_no": 999,
        "meta_rev_at_epoch": 714,
        "meta_bstar": 0.00051886,
        "meta_mean_motion_dot": 0.00032748,
        "meta_mean_motion_ddot": 0,
        "tle_line1": "1 66052U 98067XR  25335.84472299  .00032748  00000+0  51886-3 0  9996",
        "tle_line2": "2 66052  51.6297 195.7879 0004504 140.4183 219.7136 15.53090965  7145"
      },
      "geometry": {
        "type": "Point",
        "coordinates": [
          -153.76124294856814,
          15.521595906633083
        ]
      }
    },
    {
      "type": "Feature",
      "properties": {
        "norad_id": 66174,
        "name": "HTV-X1",
        "group": "stations",
        "lat": 48.273983127208716,
        "lon": -103.15702620138498,
        "alt_km": 413.596871820494,
        "timestamp": "2025-12-02T07:10:07.889863+00:00",
        "meta_object_name": "HTV-X1",
        "meta_object_id": "2025-241A",
        "meta_epoch": "2025-12-01T13:49:44.445504",
        "meta_mean_motion": 15.49226524,
        "meta_eccentricity": 0.00036473,
        "meta_inclination": 51.6309,
        "meta_ra_of_asc_node": 197.7449,
        "meta_arg_of_pericenter": 190.9481,
        "meta_mean_anomaly": 169.1428,
        "meta_ephemeris_type": 0,
        "meta_classification_type": "U",
        "meta_norad_cat_id": 66174,
        "meta_element_set_no": 999,
        "meta_rev_at_epoch": 51,
        "meta_bstar": 0.00016365535,
        "meta_mean_motion_dot": 8.648e-05,
        "meta_mean_motion_ddot": 0,
        "tle_line1": "1 66174U 25241A   25335.57620886  .00008648  00000+0  16366-3 0  9998",
        "tle_line2": "2 66174  51.6309 197.7449 0003647 190.9481 169.1428 15.49226524   510"
      },
      "geometry": {
        "type": "Point",
        "coordinates": [
          -103.15702620138498,
          48.273983127208716
        ]
      }
    },
    {
      "type": "Feature",
      "properties": {
        "norad_id": 66515,
        "name": "SZ-21 MODULE",
        "group": "stations",
        "lat": -36.28692273296372,
        "lon": 23.480656781935043,
        "alt_km": 386.0676011434525,
        "timestamp": "2025-12-02T07:10:07.889893+00:00",
        "meta_object_name": "SZ-21 MODULE",
        "meta_object_id": "2025-246C",
        "meta_epoch": "2025-12-01T17:37:35.067360",
        "meta_mean_motion": 15.61686095,
        "meta_eccentricity": 0.0005616,
        "meta_inclination": 41.4764,
        "meta_ra_of_asc_node": 83.1398,
        "meta_arg_of_pericenter": 194.9686,
        "meta_mean_anomaly": 165.0987,
        "meta_ephemeris_type": 0,
        "meta_classification_type": "U",
        "meta_norad_cat_id": 66515,
        "meta_element_set_no": 999,
        "meta_rev_at_epoch": 272,
        "meta_bstar": 0.0003376,
        "meta_mean_motion_dot": 0.00029753,
        "meta_mean_motion_ddot": 0,
        "tle_line1": "1 66515U 25246C   25335.73443365  .00029753  00000+0  33760-3 0  9992",
        "tle_line2": "2 66515  41.4764  83.1398 0005616 194.9686 165.0987 15.61686095  2728"
      },
      "geometry": {
        "type": "Point",
        "coordinates": [
          23.480656781935043,
          -36.28692273296372
        ]
      }
    },
    {
      "type": "Feature",
      "properties": {
        "norad_id": 66645,
        "name": "SHENZHOU-22",
        "group": "stations",
        "lat": 18.599748896665258,
        "lon": -122.33943990884676,
        "alt_km": 395.5388101191911,
        "timestamp": "2025-12-02T07:10:07.889911+00:00",
        "meta_object_name": "SHENZHOU-22",
        "meta_object_id": "2025-272A",
        "meta_epoch": "2025-12-01T15:08:36.996864",
        "meta_mean_motion": 15.5848082,
        "meta_eccentricity": 0.00103969,
        "meta_inclination": 41.4671,
        "meta_ra_of_asc_node": 84.1132,
        "meta_arg_of_pericenter": 308.0304,
        "meta_mean_anomaly": 51.9595,
        "meta_ephemeris_type": 0,
        "meta_classification_type": "U",
        "meta_norad_cat_id": 66645,
        "meta_element_set_no": 999,
        "meta_rev_at_epoch": 26230,
        "meta_bstar": 0.00025188161,
        "meta_mean_motion_dot": 0.00019534,
        "meta_mean_motion_ddot": 0,
        "tle_line1": "1 66645U 25272A   25335.63098376  .00019534  00000+0  25188-3 0  9993",
        "tle_line2": "2 66645  41.4671  84.1132 0010396 308.0304  51.9595 15.58480820262306"
      },
      "geometry": {
        "type": "Point",
        "coordinates": [
          -122.33943990884676,
          18.599748896665258
        ]
      }
    },
    {
      "type": "Feature",
      "properties": {
        "norad_id": 66646,
        "name": "CZ-2F R/B",
        "group": "stations",
        "lat": -31.739526000526006,
        "lon": -58.457639227596786,
        "alt_km": 214.70459857311107,
        "timestamp": "2025-12-02T07:10:07.889933+00:00",
        "meta_object_name": "CZ-2F R/B",
        "meta_object_id": "2025-272B",
        "meta_epoch": "2025-11-26T11:17:54.506400",
        "meta_mean_motion": 16.01945612,
        "meta_eccentricity": 0.01210796,
        "meta_inclination": 41.4431,
        "meta_ra_of_asc_node": 114.9009,
        "meta_arg_of_pericenter": 133.7676,
        "meta_mean_anomaly": 227.3272,
        "meta_ephemeris_type": 0,
        "meta_classification_type": "U",
        "meta_norad_cat_id": 66646,
        "meta_element_set_no": 999,
        "meta_rev_at_epoch": 21,
        "meta_bstar": 0.00029319366,
        "meta_mean_motion_dot": 0.00449059,
        "meta_mean_motion_ddot": 7.567612e-06,
        "tle_line1": "1 66646U 25272B   25330.47076975  .00449059  75676-5  29319-3 0  9998",
        "tle_line2": "2 66646  41.4431 114.9009 0121079 133.7676 227.3272 16.01945612   217"
      },
      "geometry": {
        "type": "Point",
        "coordinates": [
          -58.457639227596786,
          -31.739526000526006
        ]
      }
    },
    {
      "type": "Feature",
      "properties": {
        "norad_id": 66664,
        "name": "SOYUZ-MS 28",
        "group": "stations",
        "lat": 48.27398515145021,
        "lon": -103.15701831933156,
        "alt_km": 413.596871323718,
        "timestamp": "2025-12-02T07:10:07.889950+00:00",
        "meta_object_name": "SOYUZ-MS 28",
        "meta_object_id": "2025-275A",
        "meta_epoch": "2025-12-01T13:49:44.445504",
        "meta_mean_motion": 15.49226524,
        "meta_eccentricity": 0.00036473,
        "meta_inclination": 51.6309,
        "meta_ra_of_asc_node": 197.7449,
        "meta_arg_of_pericenter": 190.9481,
        "meta_mean_anomaly": 169.1428,
        "meta_ephemeris_type": 0,
        "meta_classification_type": "U",
        "meta_norad_cat_id": 66664,
        "meta_element_set_no": 999,
        "meta_rev_at_epoch": 71,
        "meta_bstar": 0.00016365535,
        "meta_mean_motion_dot": 8.648e-05,
        "meta_mean_motion_ddot": 0,
        "tle_line1": "1 66664U 25275A   25335.57620886  .00008648  00000+0  16366-3 0  9999",
        "tle_line2": "2 66664  51.6309 197.7449 0003647 190.9481 169.1428 15.49226524   716"
      },
      "geometry": {
        "type": "Point",
        "coordinates": [
          -103.15701831933156,
          48.27398515145021
        ]
      }
    }
  ]
}